[{"OBJECT_NAME":"PREFIRE-2","OBJECT_ID":"2024-099A","EPOCH":"2026-03-09T13:43:59.023488","MEAN_MOTION":15.2026253,"ECCENTRICITY":0.0011923,"INCLINATION":97.4208,"RA_OF_ASC_NODE":286.39,"ARG_OF_PERICENTER":187.6312,"MEAN_ANOMALY":172.4744,"EPHEMERIS_TYPE":0,"CLASSIFICATION_TYPE":"U","NORAD_CAT_ID":59881,"ELEMENT_SET_NO":999,"REV_AT_EPOCH":9899,"BSTAR":0.00023093563,"MEAN_MOTION_DOT":4.952e-5,"MEAN_MOTION_DDOT":0},{"OBJECT_NAME":"PRSC-EO1","OBJECT_ID":"2025-012A","EPOCH":"2026-03-09T23:07:33.699072","MEAN_MOTION":15.17765596,"ECCENTRICITY":0.00053607,"INCLINATION":97.4297,"RA_OF_ASC_NODE":143.3271,"ARG_OF_PERICENTER":221.9324,"MEAN_ANOMALY":138.15,"EPHEMERIS_TYPE":0,"CLASSIFICATION_TYPE":"U","NORAD_CAT_ID":62725,"ELEMENT_SET_NO":999,"REV_AT_EPOCH":6314,"BSTAR":0.0005131815,"MEAN_MOTION_DOT":0.00010308,"MEAN_MOTION_DDOT":0}]
